{
  "norad_id": 57142,
  "name": "STARLINK-5361",
  "history": [
    {
      "epoch": "2026-03-28T11:51:13.419648",
      "apogee_km": 486.6068472031675,
      "perigee_km": 484.852991927879,
      "latitude_deg": 16.736584702324365,
      "longitude_deg": -58.385089280083776,
      "semi_major_axis_km": 6863.866919565523,
      "eccentricity": 0.00012776,
      "inclination_deg": 43.0003,
      "raan_deg": 156.764,
      "arg_perigee_deg": 260.8342,
      "mean_anomaly_deg": 99.2364,
      "mean_motion_rev_day": 15.26685146
    }
  ]
}